{"type": "FeatureCollection", "features": [{"type": "Feature", "properties": {"norad_id": 50032, "name": "COSMOS 1408 DEB", "group": "cosmos-1408-debris", "lat": -19.98375068565127, "lon": 57.87038661344042, "alt_km": 440.3964830364466, "timestamp": "2025-12-10T16:57:11.907104+00:00", "meta": {"OBJECT_NAME": "COSMOS 1408 DEB", "OBJECT_ID": "1982-092RU", "EPOCH": "2025-12-10T12:22:45.329088", "MEAN_MOTION": 15.45657785, "ECCENTRICITY": 0.0015073, "INCLINATION": 82.5641, "RA_OF_ASC_NODE": 60.788, "ARG_OF_PERICENTER": 217.1445, "MEAN_ANOMALY": 142.8762, "EPHEMERIS_TYPE": 0, "CLASSIFICATION_TYPE": "U", "NORAD_CAT_ID": 50032, "ELEMENT_SET_NO": 999, "REV_AT_EPOCH": 22569, "BSTAR": 0.00015994, "MEAN_MOTION_DOT": 7.781e-05, "MEAN_MOTION_DDOT": 0}, "tle": {"line1": "1 50032U 82092RU  25344.51580242  .00007781  00000+0  15994-3 0  9999", "line2": "2 50032  82.5641  60.7880 0015073 217.1445 142.8762 15.45657785225694"}}, "geometry": {"type": "Point", "coordinates": [57.87038661344042, -19.98375068565127]}}, {"type": "Feature", "properties": {"norad_id": 50058, "name": "COSMOS 1408 DEB", "group": "cosmos-1408-debris", "lat": 46.87414127168145, "lon": 79.43145604472306, "alt_km": 366.44572471181255, "timestamp": "2025-12-10T16:57:11.907126+00:00", "meta": {"OBJECT_NAME": "COSMOS 1408 DEB", "OBJECT_ID": "1982-092SW", "EPOCH": "2025-12-10T07:32:15.069120", "MEAN_MOTION": 15.63871955, "ECCENTRICITY": 0.001649, "INCLINATION": 82.6126, "RA_OF_ASC_NODE": 71.8794, "ARG_OF_PERICENTER": 107.0459, "MEAN_ANOMALY": 253.2608, "EPHEMERIS_TYPE": 0, "CLASSIFICATION_TYPE": "U", "NORAD_CAT_ID": 50058, "ELEMENT_SET_NO": 999, "REV_AT_EPOCH": 22766, "BSTAR": 0.00047418, "MEAN_MOTION_DOT": 0.00044963, "MEAN_MOTION_DDOT": 0}, "tle": {"line1": "1 50058U 82092SW  25344.31406330  .00044963  00000+0  47418-3 0  9999", "line2": "2 50058  82.6126  71.8794 0016490 107.0459 253.2608 15.63871955227666"}}, "geometry": {"type": "Point", "coordinates": [79.43145604472306, 46.87414127168145]}}, {"type": "Feature", "properties": {"norad_id": 50404, "name": "COSMOS 1408 DEB", "group": "cosmos-1408-debris", "lat": 14.641204906772181, "lon": 35.06324960918022, "alt_km": 435.89617594186075, "timestamp": "2025-12-10T16:57:11.907139+00:00", "meta": {"OBJECT_NAME": "COSMOS 1408 DEB", "OBJECT_ID": "1982-092ADS", "EPOCH": "2025-12-10T01:55:59.645280", "MEAN_MOTION": 15.13181066, "ECCENTRICITY": 0.01731067, "INCLINATION": 82.2033, "RA_OF_ASC_NODE": 217.7549, "ARG_OF_PERICENTER": 208.0507, "MEAN_ANOMALY": 151.1318, "EPHEMERIS_TYPE": 0, "CLASSIFICATION_TYPE": "U", "NORAD_CAT_ID": 50404, "ELEMENT_SET_NO": 999, "REV_AT_EPOCH": 21153, "BSTAR": 0.0036852181, "MEAN_MOTION_DOT": 0.00095791, "MEAN_MOTION_DDOT": 0}, "tle": {"line1": "1 50404U 82092ADS 25344.08055145  .00095791  00000+0  36852-2 0  9996", "line2": "2 50404  82.2033 217.7549 0173106 208.0507 151.1318 15.13181066211532"}}, "geometry": {"type": "Point", "coordinates": [35.06324960918022, 14.641204906772181]}}, {"type": "Feature", "properties": {"norad_id": 50621, "name": "COSMOS 1408 DEB", "group": "cosmos-1408-debris", "lat": 61.05811147083847, "lon": -117.35380399045822, "alt_km": 377.3605415643542, "timestamp": "2025-12-10T16:57:11.907151+00:00", "meta": {"OBJECT_NAME": "COSMOS 1408 DEB", "OBJECT_ID": "1982-092ALR", "EPOCH": "2025-12-10T07:11:23.445888", "MEAN_MOTION": 15.564597, "ECCENTRICITY": 0.0028841, "INCLINATION": 82.5698, "RA_OF_ASC_NODE": 76.7205, "ARG_OF_PERICENTER": 161.3855, "MEAN_ANOMALY": 198.8462, "EPHEMERIS_TYPE": 0, "CLASSIFICATION_TYPE": "U", "NORAD_CAT_ID": 50621, "ELEMENT_SET_NO": 999, "REV_AT_EPOCH": 22212, "BSTAR": 0.00053678, "MEAN_MOTION_DOT": 0.00038838, "MEAN_MOTION_DDOT": 0}, "tle": {"line1": "1 50621U 82092ALR 25344.29957692  .00038838  00000+0  53678-3 0  9993", "line2": "2 50621  82.5698  76.7205 0028841 161.3855 198.8462 15.56459700222122"}}, "geometry": {"type": "Point", "coordinates": [-117.35380399045822, 61.05811147083847]}}]}